start=new Date('2022-05-26T00:00:00.000Z').valueOf();
sats=[{"LAUNCH_DATE":"2021-05-04","TLE_LINE2":"2 48375  53.0560  86.7533 0001905  52.2245 307.8916 15.06382278 58497","MEAN_MOTION_DOT":"0.00000144","ARG_OF_PERICENTER":"52.2245","ECCENTRICITY":"0.00019050","MEAN_MOTION":"15.06382278","OBJECT_TYPE":"PAYLOAD","PERIAPSIS":"545.949","INCLINATION":"53.0560","DECAY_DATE":null,"OBJECT_NAME":"STARLINK-2603","ELEMENT_SET_NO":"999","COUNTRY_CODE":"US","BSTAR":"0.00002861200000","MEAN_ANOMALY":"307.8916","PERIOD":"95.593","RA_OF_ASC_NODE":"86.7533","OBJECT_ID":"2021-038Y","SITE":"AFETR","SEMIMAJOR_AXIS":"6925.403","NORAD_CAT_ID":"48375","TIME_SYSTEM":"UTC","GP_ID":"204503390","CENTER_NAME":"EARTH","TLE_LINE1":"1 48375U 21038Y   22145.21961938  .00000144  00000-0  28612-4 0  9996","RCS_SIZE":"LARGE","APOAPSIS":"548.587","EPHEMERIS_TYPE":"0","REV_AT_EPOCH":"5849","REF_FRAME":"TEME","MEAN_ELEMENT_THEORY":"SGP4","CLASSIFICATION_TYPE":"U","MEAN_MOTION_DDOT":"0.0000000000000","EPOCH":"2022-05-25T05:16:15.114432","FILE":"3463908"},{"TIME_SYSTEM":"UTC","NORAD_CAT_ID":"48376","CENTER_NAME":"EARTH","TLE_LINE1":"1 48376U 21038Z   22145.28226740  .00002517  00000-0  18779-3 0  9997","GP_ID":"204503641","REF_FRAME":"TEME","MEAN_ELEMENT_THEORY":"SGP4","CLASSIFICATION_TYPE":"U","MEAN_MOTION_DDOT":"0.0000000000000","RCS_SIZE":"LARGE","APOAPSIS":"548.256","EPHEMERIS_TYPE":"0","REV_AT_EPOCH":"5850","FILE":"3463908","EPOCH":"2022-05-25T06:46:27.903360","MEAN_MOTION_DOT":"0.00002517","ARG_OF_PERICENTER":"52.9176","ECCENTRICITY":"0.00015010","MEAN_MOTION":"15.06398968","LAUNCH_DATE":"2021-05-04","TLE_LINE2":"2 48376  53.0553  86.4772 0001501  52.9176 307.1950 15.06398968 58500","DECAY_DATE":null,"OBJECT_NAME":"STARLINK-2610","ELEMENT_SET_NO":"999","OBJECT_TYPE":"PAYLOAD","PERIAPSIS":"546.177","INCLINATION":"53.0553","PERIOD":"95.592","RA_OF_ASC_NODE":"86.4772","MEAN_ANOMALY":"307.1950","COUNTRY_CODE":"US","BSTAR":"0.00018779000000","OBJECT_ID":"2021-038Z","SITE":"AFETR","SEMIMAJOR_AXIS":"6925.352"},{"OBJECT_TYPE":"PAYLOAD","PERIAPSIS":"545.878","INCLINATION":"53.0553","DECAY_DATE":null,"OBJECT_NAME":"STARLINK-2499","ELEMENT_SET_NO":"999","LAUNCH_DATE":"2021-05-04","TLE_LINE2":"2 48377  53.0553  86.7809 0002006  50.8051 309.3116 15.06382612 58490","MEAN_MOTION_DOT":"0.00000496","ECCENTRICITY":"0.00020060","ARG_OF_PERICENTER":"50.8051","MEAN_MOTION":"15.06382612","OBJECT_ID":"2021-038AA","SITE":"AFETR","SEMIMAJOR_AXIS":"6925.402","COUNTRY_CODE":"US","BSTAR":"0.00005225100000","RA_OF_ASC_NODE":"86.7809","PERIOD":"95.593","MEAN_ANOMALY":"309.3116","GP_ID":"204502390","CENTER_NAME":"EARTH","TLE_LINE1":"1 48377U 21038AA  22145.21224809  .00000496  00000-0  52251-4 0  9993","NORAD_CAT_ID":"48377","TIME_SYSTEM":"UTC","EPOCH":"2022-05-25T05:05:38.234976","FILE":"3463908","APOAPSIS":"548.656","RCS_SIZE":"LARGE","EPHEMERIS_TYPE":"0","REV_AT_EPOCH":"5849","REF_FRAME":"TEME","MEAN_ELEMENT_THEORY":"SGP4","CLASSIFICATION_TYPE":"U","MEAN_MOTION_DDOT":"0.0000000000000"},{"ELEMENT_SET_NO":"999","DECAY_DATE":null,"OBJECT_NAME":"STARLINK-2526","PERIAPSIS":"545.957","INCLINATION":"53.0550","OBJECT_TYPE":"PAYLOAD","MEAN_MOTION":"15.06391007","MEAN_MOTION_DOT":"0.00004058","ARG_OF_PERICENTER":"58.1048","ECCENTRICITY":"0.00018540","LAUNCH_DATE":"2021-05-04","TLE_LINE2":"2 48378  53.0550  86.2093 0001854  58.1048 302.0122 15.06391007 58513","SEMIMAJOR_AXIS":"6925.376","SITE":"AFETR","OBJECT_ID":"2021-038AB","RA_OF_ASC_NODE":"86.2093","PERIOD":"95.593","MEAN_ANOMALY":"302.0122","BSTAR":"0.00029126000000","COUNTRY_CODE":"US","CENTER_NAME":"EARTH","TLE_LINE1":"1 48378U 21038AB  22145.34125314  .00004058  00000-0  29126-3 0  9991","GP_ID":"204502640","TIME_SYSTEM":"UTC","NORAD_CAT_ID":"48378","FILE":"3463908","EPOCH":"2022-05-25T08:11:24.271296","CLASSIFICATION_TYPE":"U","MEAN_MOTION_DDOT":"0.0000000000000","REF_FRAME":"TEME","MEAN_ELEMENT_THEORY":"SGP4","REV_AT_EPOCH":"5851","RCS_SIZE":"LARGE","APOAPSIS":"548.525","EPHEMERIS_TYPE":"0"},{"DECAY_DATE":null,"OBJECT_NAME":"STARLINK-2612","ELEMENT_SET_NO":"999","OBJECT_TYPE":"PAYLOAD","PERIAPSIS":"546.083","INCLINATION":"53.0566","MEAN_MOTION_DOT":"0.00000467","ARG_OF_PERICENTER":"57.2919","ECCENTRICITY":"0.00017200","MEAN_MOTION":"15.06380179","LAUNCH_DATE":"2021-05-04","TLE_LINE2":"2 48379  53.0566  86.8208 0001720  57.2919 302.8236 15.06380179 58493","OBJECT_ID":"2021-038AC","SITE":"AFETR","SEMIMAJOR_AXIS":"6925.409","RA_OF_ASC_NODE":"86.8208","PERIOD":"95.593","MEAN_ANOMALY":"302.8236","COUNTRY_CODE":"US","BSTAR":"0.00005026600000","CENTER_NAME":"EARTH","TLE_LINE1":"1 48379U 21038AC  22145.20487529  .00000467  00000-0  50266-4 0  9996","GP_ID":"204502891","TIME_SYSTEM":"UTC","NORAD_CAT_ID":"48379","FILE":"3463908","EPOCH":"2022-05-25T04:55:01.225056","REF_FRAME":"TEME","MEAN_ELEMENT_THEORY":"SGP4","CLASSIFICATION_TYPE":"U","MEAN_MOTION_DDOT":"0.0000000000000","APOAPSIS":"548.465","RCS_SIZE":"LARGE","EPHEMERIS_TYPE":"0","REV_AT_EPOCH":"5849"},{"COUNTRY_CODE":"US","BSTAR":"0.00014838000000","RA_OF_ASC_NODE":"86.7050","PERIOD":"95.593","MEAN_ANOMALY":"322.3312","OBJECT_ID":"2021-038AD","SITE":"AFETR","SEMIMAJOR_AXIS":"6925.385","TLE_LINE2":"2 48380  53.0561  86.7050 0001878  37.7808 322.3312 15.06388021 58494","LAUNCH_DATE":"2021-05-04","ARG_OF_PERICENTER":"37.7808","ECCENTRICITY":"0.00018780","MEAN_MOTION_DOT":"0.00001928","MEAN_MOTION":"15.06388021","OBJECT_TYPE":"PAYLOAD","INCLINATION":"53.0561","PERIAPSIS":"545.950","OBJECT_NAME":"STARLINK-2614","DECAY_DATE":null,"ELEMENT_SET_NO":"999","EPHEMERIS_TYPE":"0","RCS_SIZE":"LARGE","APOAPSIS":"548.551","REV_AT_EPOCH":"5849","MEAN_ELEMENT_THEORY":"SGP4","REF_FRAME":"TEME","MEAN_MOTION_DDOT":"0.0000000000000","CLASSIFICATION_TYPE":"U","EPOCH":"2022-05-25T05:30:48.366144","FILE":"3463908","NORAD_CAT_ID":"48380","TIME_SYSTEM":"UTC","GP_ID":"204503141","TLE_LINE1":"1 48380U 21038AD  22145.22972646  .00001928  00000-0  14838-3 0  9996","CENTER_NAME":"EARTH"},{"OBJECT_ID":"2021-038AE","SITE":"AFETR","SEMIMAJOR_AXIS":"6925.399","RA_OF_ASC_NODE":"86.5322","PERIOD":"95.593","MEAN_ANOMALY":"310.1825","COUNTRY_CODE":"US","BSTAR":"0.00021138000000","DECAY_DATE":null,"OBJECT_NAME":"STARLINK-2630","ELEMENT_SET_NO":"999","OBJECT_TYPE":"PAYLOAD","PERIAPSIS":"545.825","INCLINATION":"53.0558","MEAN_MOTION_DOT":"0.00002867","ARG_OF_PERICENTER":"49.9346","ECCENTRICITY":"0.00020780","MEAN_MOTION":"15.06383647","LAUNCH_DATE":"2021-05-04","TLE_LINE2":"2 48381  53.0558  86.5322 0002078  49.9346 310.1825 15.06383647 59096","FILE":"3464171","EPOCH":"2022-05-25T06:25:16.129056","REF_FRAME":"TEME","MEAN_ELEMENT_THEORY":"SGP4","CLASSIFICATION_TYPE":"U","MEAN_MOTION_DDOT":"0.0000000000000","APOAPSIS":"548.703","RCS_SIZE":"LARGE","EPHEMERIS_TYPE":"0","REV_AT_EPOCH":"5909","CENTER_NAME":"EARTH","TLE_LINE1":"1 48381U 21038AE  22145.26754779  .00002867  00000-0  21138-3 0  9990","GP_ID":"204511432","TIME_SYSTEM":"UTC","NORAD_CAT_ID":"48381"},{"OBJECT_ID":"2021-038AF","SITE":"AFETR","SEMIMAJOR_AXIS":"6925.422","COUNTRY_CODE":"US","BSTAR":"0.00008617400000","PERIOD":"95.594","MEAN_ANOMALY":"317.8744","RA_OF_ASC_NODE":"86.2641","OBJECT_TYPE":"PAYLOAD","PERIAPSIS":"545.683","INCLINATION":"53.0566","DECAY_DATE":null,"OBJECT_NAME":"STARLINK-2585","ELEMENT_SET_NO":"999","LAUNCH_DATE":"2021-05-04","TLE_LINE2":"2 48382  53.0566  86.2641 0002317  42.2423 317.8744 15.06375997 58514","MEAN_MOTION_DOT":"0.00001001","ARG_OF_PERICENTER":"42.2423","ECCENTRICITY":"0.00023170","MEAN_MOTION":"15.06375997","EPOCH":"2022-05-25T07:55:29.419104","FILE":"3463908","RCS_SIZE":"LARGE","APOAPSIS":"548.892","EPHEMERIS_TYPE":"0","REV_AT_EPOCH":"5851","REF_FRAME":"TEME","MEAN_ELEMENT_THEORY":"SGP4","CLASSIFICATION_TYPE":"U","MEAN_MOTION_DDOT":"0.0000000000000","GP_ID":"204502140","CENTER_NAME":"EARTH","TLE_LINE1":"1 48382U 21038AF  22145.33020161  .00001001  00000-0  86174-4 0  9991","NORAD_CAT_ID":"48382","TIME_SYSTEM":"UTC"},{"SITE":"AFETR","OBJECT_ID":"2021-038AG","SEMIMAJOR_AXIS":"6925.383","COUNTRY_CODE":"US","BSTAR":"0.00002366100000","MEAN_ANOMALY":"305.9734","PERIOD":"95.593","RA_OF_ASC_NODE":"86.5707","OBJECT_TYPE":"PAYLOAD","INCLINATION":"53.0593","PERIAPSIS":"545.633","OBJECT_NAME":"STARLINK-2599","DECAY_DATE":null,"ELEMENT_SET_NO":"999","TLE_LINE2":"2 48383  53.0593  86.5707 0002332  54.1471 305.9734 15.06388872 59720","LAUNCH_DATE":"2021-05-04","ARG_OF_PERICENTER":"54.1471","ECCENTRICITY":"0.00023320","MEAN_MOTION_DOT":"0.00000071","MEAN_MOTION":"15.06388872","EPOCH":"2022-05-25T06:14:38.459904","FILE":"3463908","EPHEMERIS_TYPE":"0","RCS_SIZE":"LARGE","APOAPSIS":"548.863","REV_AT_EPOCH":"5972","MEAN_ELEMENT_THEORY":"SGP4","REF_FRAME":"TEME","MEAN_MOTION_DDOT":"0.0000000000000","CLASSIFICATION_TYPE":"U","GP_ID":"204503391","TLE_LINE1":"1 48383U 21038AG  22145.26016736  .00000071  00000-0  23661-4 0  9995","CENTER_NAME":"EARTH","NORAD_CAT_ID":"48383","TIME_SYSTEM":"UTC"},{"EPOCH":"2022-05-25T20:29:10.671936","FILE":"3464394","REV_AT_EPOCH":"5981","EPHEMERIS_TYPE":"0","RCS_SIZE":"LARGE","APOAPSIS":"548.414","MEAN_MOTION_DDOT":"0.0000000000000","CLASSIFICATION_TYPE":"U","MEAN_ELEMENT_THEORY":"SGP4","REF_FRAME":"TEME","GP_ID":"204538532","TLE_LINE1":"1 48384U 21038AH  22145.85359574  .00003963  00000-0  28477-3 0  9993","CENTER_NAME":"EARTH","NORAD_CAT_ID":"48384","TIME_SYSTEM":"UTC","SEMIMAJOR_AXIS":"6925.346","OBJECT_ID":"2021-038AH","SITE":"AFETR","BSTAR":"0.00028477000000","COUNTRY_CODE":"US","RA_OF_ASC_NODE":"83.9075","PERIOD":"95.592","MEAN_ANOMALY":"318.6949","INCLINATION":"53.0556","PERIAPSIS":"546.007","OBJECT_TYPE":"PAYLOAD","ELEMENT_SET_NO":"999","OBJECT_NAME":"STARLINK-2601","DECAY_DATE":null,"LAUNCH_DATE":"2021-05-04","TLE_LINE2":"2 48384  53.0556  83.9075 0001738  41.4172 318.6949 15.06400906 59817","MEAN_MOTION":"15.06400906","ARG_OF_PERICENTER":"41.4172","ECCENTRICITY":"0.00017380","MEAN_MOTION_DOT":"0.00003963"}];
